FLOCK 4G-36             
1 62675U 25009BU  26068.70726311  .00013573  00000+0  51122-3 0  9993
2 62675  97.4053 151.0513 0003474 324.2456  35.8550 15.27209548 63701
STARLINK-36526          
1 67508U 26012R   26068.40623108  .00017039  00000+0  62731-3 0  9994
2 67508  43.0032 315.5476 0001583 256.5628 103.5047 15.27578132  7729
